FENGYUN 1C DEB          
1 32089U 99025CQF 17344.92486346  .00000291  00000-0  18165-3 0  9994
2 32089  98.8900  26.9531 0122138 121.7772 239.5364 14.08488121220124
